[{"OBJECT_NAME":"COSMOS 1953","OBJECT_ID":"1988-050A","EPOCH":"2026-03-02T18:02:10.391424","MEAN_MOTION":15.28371852,"ECCENTRICITY":0.0012172,"INCLINATION":82.5116,"RA_OF_ASC_NODE":165.2225,"ARG_OF_PERICENTER":145.0303,"MEAN_ANOMALY":215.1738,"EPHEMERIS_TYPE":0,"CLASSIFICATION_TYPE":"U","NORAD_CAT_ID":19210,"ELEMENT_SET_NO":999,"REV_AT_EPOCH":3672,"BSTAR":0.00038458,"MEAN_MOTION_DOT":0.0001068,"MEAN_MOTION_DDOT":0},{"OBJECT_NAME":"SL-8 R/B","OBJECT_ID":"1988-053B","EPOCH":"2026-03-02T15:41:55.006368","MEAN_MOTION":14.3891076,"ECCENTRICITY":0.0021257,"INCLINATION":74.0469,"RA_OF_ASC_NODE":125.4351,"ARG_OF_PERICENTER":305.7809,"MEAN_ANOMALY":216.9762,"EPHEMERIS_TYPE":0,"CLASSIFICATION_TYPE":"U","NORAD_CAT_ID":19257,"ELEMENT_SET_NO":999,"REV_AT_EPOCH":97558,"BSTAR":0.00010705,"MEAN_MOTION_DOT":3.04e-6,"MEAN_MOTION_DDOT":0},{"OBJECT_NAME":"COSMOS 1975","OBJECT_ID":"1988-093A","EPOCH":"2026-03-02T15:39:13.352832","MEAN_MOTION":15.27939863,"ECCENTRICITY":0.0011484,"INCLINATION":82.5201,"RA_OF_ASC_NODE":124.749,"ARG_OF_PERICENTER":187.6591,"MEAN_ANOMALY":172.4475,"EPHEMERIS_TYPE":0,"CLASSIFICATION_TYPE":"U","NORAD_CAT_ID":19573,"ELEMENT_SET_NO":999,"REV_AT_EPOCH":1833,"BSTAR":0.00033661,"MEAN_MOTION_DOT":9.226e-5,"MEAN_MOTION_DDOT":0},{"OBJECT_NAME":"SL-14 R/B","OBJECT_ID":"1988-093B","EPOCH":"2026-03-02T11:11:58.114176","MEAN_MOTION":14.85645946,"ECCENTRICITY":0.00221711,"INCLINATION":82.529,"RA_OF_ASC_NODE":48.825,"ARG_OF_PERICENTER":64.0529,"MEAN_ANOMALY":56.305,"EPHEMERIS_TYPE":0,"CLASSIFICATION_TYPE":"U","NORAD_CAT_ID":19574,"ELEMENT_SET_NO":999,"REV_AT_EPOCH":99996,"BSTAR":7.998842e-5,"MEAN_MOTION_DOT":7.2e-6,"MEAN_MOTION_DDOT":0},{"OBJECT_NAME":"SL-16 R/B","OBJECT_ID":"1988-102B","EPOCH":"2026-03-02T16:48:13.514688","MEAN_MOTION":14.16149362,"ECCENTRICITY":0.0013519,"INCLINATION":71,"RA_OF_ASC_NODE":166.2026,"ARG_OF_PERICENTER":12.266,"MEAN_ANOMALY":347.879,"EPHEMERIS_TYPE":0,"CLASSIFICATION_TYPE":"U","NORAD_CAT_ID":19650,"ELEMENT_SET_NO":999,"REV_AT_EPOCH":92590,"BSTAR":-2.3193e-5,"MEAN_MOTION_DOT":-9.4e-7,"MEAN_MOTION_DDOT":0},{"OBJECT_NAME":"INTERCOSMOS 24","OBJECT_ID":"1989-080A","EPOCH":"2026-03-02T13:47:19.288320","MEAN_MOTION":12.59544974,"ECCENTRICITY":0.1186853,"INCLINATION":82.6033,"RA_OF_ASC_NODE":109.0376,"ARG_OF_PERICENTER":309.3514,"MEAN_ANOMALY":40.8085,"EPHEMERIS_TYPE":0,"CLASSIFICATION_TYPE":"U","NORAD_CAT_ID":20261,"ELEMENT_SET_NO":999,"REV_AT_EPOCH":66590,"BSTAR":0.00023149,"MEAN_MOTION_DOT":7.8e-6,"MEAN_MOTION_DDOT":0},{"OBJECT_NAME":"SL-14 R/B","OBJECT_ID":"1989-080C","EPOCH":"2026-03-02T18:05:56.819040","MEAN_MOTION":12.5048309,"ECCENTRICITY":0.1230299,"INCLINATION":82.5971,"RA_OF_ASC_NODE":177.6372,"ARG_OF_PERICENTER":200.5981,"MEAN_ANOMALY":154.1094,"EPHEMERIS_TYPE":0,"CLASSIFICATION_TYPE":"U","NORAD_CAT_ID":20262,"ELEMENT_SET_NO":999,"REV_AT_EPOCH":65928,"BSTAR":0.00022146,"MEAN_MOTION_DOT":7.44e-6,"MEAN_MOTION_DDOT":0},{"OBJECT_NAME":"DELTA 1 R/B","OBJECT_ID":"1989-089B","EPOCH":"2026-03-02T14:02:45.951648","MEAN_MOTION":14.50656335,"ECCENTRICITY":0.0070022,"INCLINATION":97.0711,"RA_OF_ASC_NODE":270.1538,"ARG_OF_PERICENTER":144.095,"MEAN_ANOMALY":216.4983,"EPHEMERIS_TYPE":0,"CLASSIFICATION_TYPE":"U","NORAD_CAT_ID":20323,"ELEMENT_SET_NO":999,"REV_AT_EPOCH":89470,"BSTAR":0.00011989,"MEAN_MOTION_DOT":4.51e-6,"MEAN_MOTION_DDOT":0},{"OBJECT_NAME":"ARIANE 40 R/B","OBJECT_ID":"1990-005H","EPOCH":"2026-03-02T17:24:36.749376","MEAN_MOTION":14.39864935,"ECCENTRICITY":0.0009427,"INCLINATION":98.3099,"RA_OF_ASC_NODE":122.594,"ARG_OF_PERICENTER":220.2494,"MEAN_ANOMALY":139.7998,"EPHEMERIS_TYPE":0,"CLASSIFICATION_TYPE":"U","NORAD_CAT_ID":20443,"ELEMENT_SET_NO":999,"REV_AT_EPOCH":89180,"BSTAR":0.0001157,"MEAN_MOTION_DOT":3.21e-6,"MEAN_MOTION_DDOT":0},{"OBJECT_NAME":"DELTA 2 R/B(1)","OBJECT_ID":"1990-008B","EPOCH":"2026-03-02T10:37:30.180288","MEAN_MOTION":15.54850817,"ECCENTRICITY":0.00869822,"INCLINATION":35.6028,"RA_OF_ASC_NODE":222.3764,"ARG_OF_PERICENTER":191.5547,"MEAN_ANOMALY":168.319,"EPHEMERIS_TYPE":0,"CLASSIFICATION_TYPE":"U","NORAD_CAT_ID":20453,"ELEMENT_SET_NO":999,"REV_AT_EPOCH":92500,"BSTAR":0.0009052081,"MEAN_MOTION_DOT":0.00074557,"MEAN_MOTION_DDOT":0},{"OBJECT_NAME":"COSMOS 2058","OBJECT_ID":"1990-010A","EPOCH":"2026-03-02T10:20:53.045664","MEAN_MOTION":15.11242251,"ECCENTRICITY":0.00099013,"INCLINATION":82.4664,"RA_OF_ASC_NODE":54.5789,"ARG_OF_PERICENTER":7.4003,"MEAN_ANOMALY":352.7371,"EPHEMERIS_TYPE":0,"CLASSIFICATION_TYPE":"U","NORAD_CAT_ID":20465,"ELEMENT_SET_NO":999,"REV_AT_EPOCH":94114,"BSTAR":0.00029680016,"MEAN_MOTION_DOT":5.022e-5,"MEAN_MOTION_DDOT":0},{"OBJECT_NAME":"SL-14 R/B","OBJECT_ID":"1990-010B","EPOCH":"2026-03-02T19:22:33.684384","MEAN_MOTION":14.83561811,"ECCENTRICITY":0.0018973,"INCLINATION":82.4992,"RA_OF_ASC_NODE":273.8552,"ARG_OF_PERICENTER":326.364,"MEAN_ANOMALY":33.6369,"EPHEMERIS_TYPE":0,"CLASSIFICATION_TYPE":"U","NORAD_CAT_ID":20466,"ELEMENT_SET_NO":999,"REV_AT_EPOCH":92746,"BSTAR":5.5834e-5,"MEAN_MOTION_DOT":4.85e-6,"MEAN_MOTION_DDOT":0},{"OBJECT_NAME":"SL-14 R/B","OBJECT_ID":"1990-018B","EPOCH":"2026-03-02T13:09:50.786208","MEAN_MOTION":14.82135482,"ECCENTRICITY":0.0017578,"INCLINATION":82.519,"RA_OF_ASC_NODE":229.765,"ARG_OF_PERICENTER":113.6977,"MEAN_ANOMALY":246.6084,"EPHEMERIS_TYPE":0,"CLASSIFICATION_TYPE":"U","NORAD_CAT_ID":20511,"ELEMENT_SET_NO":999,"REV_AT_EPOCH":92152,"BSTAR":7.7763e-5,"MEAN_MOTION_DOT":6.44e-6,"MEAN_MOTION_DDOT":0},{"OBJECT_NAME":"HST","OBJECT_ID":"1990-037B","EPOCH":"2026-03-02T08:57:46.083456","MEAN_MOTION":15.29345912,"ECCENTRICITY":0.00016383,"INCLINATION":28.47,"RA_OF_ASC_NODE":89.9045,"ARG_OF_PERICENTER":52.0942,"MEAN_ANOMALY":307.9801,"EPHEMERIS_TYPE":0,"CLASSIFICATION_TYPE":"U","NORAD_CAT_ID":20580,"ELEMENT_SET_NO":999,"REV_AT_EPOCH":77219,"BSTAR":0.0003034347,"MEAN_MOTION_DOT":9.122e-5,"MEAN_MOTION_DDOT":0},{"OBJECT_NAME":"SL-16 R/B","OBJECT_ID":"1990-046B","EPOCH":"2026-03-02T18:27:56.039904","MEAN_MOTION":14.15014801,"ECCENTRICITY":0.0016107,"INCLINATION":71.0004,"RA_OF_ASC_NODE":312.4485,"ARG_OF_PERICENTER":308.957,"MEAN_ANOMALY":51.0117,"EPHEMERIS_TYPE":0,"CLASSIFICATION_TYPE":"U","NORAD_CAT_ID":20625,"ELEMENT_SET_NO":999,"REV_AT_EPOCH":84741,"BSTAR":-6.134e-5,"MEAN_MOTION_DOT":-1.67e-6,"MEAN_MOTION_DDOT":0},{"OBJECT_NAME":"COSMOS 2084","OBJECT_ID":"1990-055A","EPOCH":"2026-03-02T19:33:13.983552","MEAN_MOTION":15.05598986,"ECCENTRICITY":0.0018174,"INCLINATION":62.7923,"RA_OF_ASC_NODE":359.0238,"ARG_OF_PERICENTER":188.4625,"MEAN_ANOMALY":171.6172,"EPHEMERIS_TYPE":0,"CLASSIFICATION_TYPE":"U","NORAD_CAT_ID":20663,"ELEMENT_SET_NO":999,"REV_AT_EPOCH":93528,"BSTAR":0.00025332,"MEAN_MOTION_DOT":3.481e-5,"MEAN_MOTION_DDOT":0},{"OBJECT_NAME":"SL-6 R/B(2)","OBJECT_ID":"1990-055D","EPOCH":"2026-03-02T18:54:43.640640","MEAN_MOTION":15.03555063,"ECCENTRICITY":0.0023679,"INCLINATION":62.782,"RA_OF_ASC_NODE":277.3217,"ARG_OF_PERICENTER":345.32,"MEAN_ANOMALY":14.7209,"EPHEMERIS_TYPE":0,"CLASSIFICATION_TYPE":"U","NORAD_CAT_ID":20666,"ELEMENT_SET_NO":999,"REV_AT_EPOCH":93715,"BSTAR":0.00018863,"MEAN_MOTION_DOT":2.402e-5,"MEAN_MOTION_DDOT":0}]
