COSMOS 1953             
1 19210U 88050A   26061.75150916  .00010680  00000+0  38458-3 0  9998
2 19210  82.5116 165.2225 0012172 145.0303 215.1738 15.28371852 36727
SL-8 R/B                
1 19257U 88053B   26061.65410887  .00000304  00000+0  10705-3 0  9994
2 19257  74.0469 125.4351 0021257 305.7809 216.9762 14.38910760975582
COSMOS 1975             
1 19573U 88093A   26061.65223788  .00009226  00000+0  33661-3 0  9999
2 19573  82.5201 124.7490 0011484 187.6591 172.4475 15.27939863 18335
SL-14 R/B               
1 19574U 88093B   26061.46664484  .00000720  00000+0  79988-4 0  9994
2 19574  82.5290  48.8250 0022171  64.0529  56.3050 14.85645946999963
SL-16 R/B               
1 19650U 88102B   26061.70015642 -.00000094  00000+0 -23193-4 0  9996
2 19650  71.0000 166.2026 0013519  12.2660 347.8790 14.16149362925900
INTERCOSMOS 24          
1 20261U 89080A   26061.57452880  .00000780  00000+0  23149-3 0  9996
2 20261  82.6033 109.0376 1186853 309.3514  40.8085 12.59544974665909
SL-14 R/B               
1 20262U 89080C   26061.75412985  .00000744  00000+0  22146-3 0  9995
2 20262  82.5971 177.6372 1230299 200.5981 154.1094 12.50483090659286
DELTA 1 R/B             
1 20323U 89089B   26061.58525407  .00000451  00000+0  11989-3 0  9995
2 20323  97.0711 270.1538 0070022 144.0950 216.4983 14.50656335894706
ARIANE 40 R/B           
1 20443U 90005H   26061.72542534  .00000321  00000+0  11570-3 0  9996
2 20443  98.3099 122.5940 0009427 220.2494 139.7998 14.39864935891805
DELTA 2 R/B(1)          
1 20453U 90008B   26061.44271042  .00074557  00000+0  90521-3 0  9997
2 20453  35.6028 222.3764 0086982 191.5547 168.3190 15.54850817925009
COSMOS 2058             
1 20465U 90010A   26061.43116951  .00005022  00000+0  29680-3 0  9998
2 20465  82.4664  54.5789 0009901   7.4003 352.7371 15.11242251941141
SL-14 R/B               
1 20466U 90010B   26061.80733431  .00000485  00000+0  55834-4 0  9997
2 20466  82.4992 273.8552 0018973 326.3640  33.6369 14.83561811927464
SL-14 R/B               
1 20511U 90018B   26061.54850447  .00000644  00000+0  77763-4 0  9996
2 20511  82.5190 229.7650 0017578 113.6977 246.6084 14.82135482921526
HST                     
1 20580U 90037B   26061.37345004  .00009122  00000+0  30343-3 0  9994
2 20580  28.4700  89.9045 0001638  52.0942 307.9801 15.29345912772198
SL-16 R/B               
1 20625U 90046B   26061.76939861 -.00000167  00000+0 -61340-4 0  9991
2 20625  71.0004 312.4485 0016107 308.9570  51.0117 14.15014801847417
COSMOS 2084             
1 20663U 90055A   26061.81474518  .00003481  00000+0  25332-3 0  9992
2 20663  62.7923 359.0238 0018174 188.4625 171.6172 15.05598986935281
SL-6 R/B(2)             
1 20666U 90055D   26061.78800510  .00002402  00000+0  18863-3 0  9999
2 20666  62.7820 277.3217 0023679 345.3200  14.7209 15.03555063937151
